AQUA                    
1 27424U 02022A   26086.19574205  .00000999  00000+0  20893-3 0  9991
2 27424  98.4203  53.8835 0001058 117.7565 253.6082 14.62015788271294
CZ-4B R/B               
1 27432U 02024C   26086.11760998  .00000041  00000+0  44063-4 0  9994
2 27432  98.8802 139.4337 0049586 334.6419  77.4282 14.14550693231708
MIDORI II (ADEOS-II)    
1 27597U 02056A   26086.16480357  .00000315  00000+0  14148-3 0  9998
2 27597  98.7799  44.7665 0000834  23.0291 337.0927 14.29297843212796
H-2A R/B                
1 27601U 02056E   26085.94095353  .00000304  00000+0  12069-3 0  9995
2 27601  98.3232  45.6529 0071320 109.8198 292.3185 14.33771847216582
CZ-4B R/B               
1 28059U 03049C   26085.98802310  .00000362  00000+0  94471-4 0  9991
2 28059  98.6893  81.5736 0048171 177.5517 182.5924 14.55035299189117
CZ-2C R/B               
1 28222U 04012C   26086.18636000  .00054230  00000+0  51491-3 0  9995
2 28222  97.7188 153.1612 0013240 238.9845 121.0115 15.66620770207017
SL-16 R/B               
1 28353U 04021B   26085.42805724  .00000102  00000+0  77697-4 0  9993
2 28353  71.0005 197.3658 0004839 349.4453  10.6567 14.14593929125203
CZ-4B R/B               
1 28415U 04035C   26086.05321895  .00008669  00000+0  30304-3 0  9998
2 28415  97.3476 120.0889 0029966 266.6078  93.1734 15.29359100182567
CZ-2C R/B               
1 28480U 04046B   26086.15540472  .00000128  00000+0  62145-4 0  9998
2 28480  98.1976   0.0512 0140592 103.1130 258.5785 14.26998110110993
ARIANE 5 R/B            
1 28499U 04049H   26086.08087424  .00000801  00000+0  95006-4 0  9996
2 28499  98.2654 255.1922 0082953 295.0835  64.1786 14.85296251148371
CZ-2D R/B               
1 28738U 05024B   26086.01821875  .00049716  00000+0  57530-3 0  9992
2 28738  97.3584 101.8194 0002751 348.3789  11.7405 15.61707844142487
ALOS (DAICHI)           
1 28931U 06002A   26085.86221495  .00001271  00000+0  22084-3 0  9998
2 28931  98.1245  41.7351 0000805 103.5214 256.6081 14.69860279 76007
