CCSDS_OMM_VERS = 2.0
CREATION_DATE  = 
ORIGINATOR     = 

OBJECT_NAME    = AQUA
OBJECT_ID      = 2002-022A
CENTER_NAME    = EARTH
REF_FRAME      = TEME
TIME_SYSTEM    = UTC
MEAN_ELEMENT_THEORY = SGP/SGP4

EPOCH          = 2026-03-27T04:41:52.113120
MEAN_MOTION    = 14.62015788
ECCENTRICITY   = .0001058
INCLINATION    = 98.4203
RA_OF_ASC_NODE = 53.8835
ARG_OF_PERICENTER = 117.7565
MEAN_ANOMALY   = 253.6082

EPHEMERIS_TYPE = 0
CLASSIFICATION_TYPE = U
NORAD_CAT_ID   = 27424
ELEMENT_SET_NO = 999
REV_AT_EPOCH   = 27129
BSTAR          = .20893E-3
MEAN_MOTION_DOT = .999E-5
MEAN_MOTION_DDOT = 0

CCSDS_OMM_VERS = 2.0
CREATION_DATE  = 
ORIGINATOR     = 

OBJECT_NAME    = CZ-4B R/B
OBJECT_ID      = 2002-024C
CENTER_NAME    = EARTH
REF_FRAME      = TEME
TIME_SYSTEM    = UTC
MEAN_ELEMENT_THEORY = SGP/SGP4

EPOCH          = 2026-03-27T02:49:21.502272
MEAN_MOTION    = 14.14550693
ECCENTRICITY   = .0049586
INCLINATION    = 98.8802
RA_OF_ASC_NODE = 139.4337
ARG_OF_PERICENTER = 334.6419
MEAN_ANOMALY   = 77.4282

EPHEMERIS_TYPE = 0
CLASSIFICATION_TYPE = U
NORAD_CAT_ID   = 27432
ELEMENT_SET_NO = 999
REV_AT_EPOCH   = 23170
BSTAR          = .44063E-4
MEAN_MOTION_DOT = .41E-6
MEAN_MOTION_DDOT = 0

CCSDS_OMM_VERS = 2.0
CREATION_DATE  = 
ORIGINATOR     = 

OBJECT_NAME    = MIDORI II (ADEOS-II)
OBJECT_ID      = 2002-056A
CENTER_NAME    = EARTH
REF_FRAME      = TEME
TIME_SYSTEM    = UTC
MEAN_ELEMENT_THEORY = SGP/SGP4

EPOCH          = 2026-03-27T03:57:19.028448
MEAN_MOTION    = 14.29297843
ECCENTRICITY   = .0000834
INCLINATION    = 98.7799
RA_OF_ASC_NODE = 44.7665
ARG_OF_PERICENTER = 23.0291
MEAN_ANOMALY   = 337.0927

EPHEMERIS_TYPE = 0
CLASSIFICATION_TYPE = U
NORAD_CAT_ID   = 27597
ELEMENT_SET_NO = 999
REV_AT_EPOCH   = 21279
BSTAR          = .14148E-3
MEAN_MOTION_DOT = .315E-5
MEAN_MOTION_DDOT = 0

CCSDS_OMM_VERS = 2.0
CREATION_DATE  = 
ORIGINATOR     = 

OBJECT_NAME    = H-2A R/B
OBJECT_ID      = 2002-056E
CENTER_NAME    = EARTH
REF_FRAME      = TEME
TIME_SYSTEM    = UTC
MEAN_ELEMENT_THEORY = SGP/SGP4

EPOCH          = 2026-03-26T22:34:58.384992
MEAN_MOTION    = 14.33771847
ECCENTRICITY   = .007132
INCLINATION    = 98.3232
RA_OF_ASC_NODE = 45.6529
ARG_OF_PERICENTER = 109.8198
MEAN_ANOMALY   = 292.3185

EPHEMERIS_TYPE = 0
CLASSIFICATION_TYPE = U
NORAD_CAT_ID   = 27601
ELEMENT_SET_NO = 999
REV_AT_EPOCH   = 21658
BSTAR          = .12069E-3
MEAN_MOTION_DOT = .304E-5
MEAN_MOTION_DDOT = 0

CCSDS_OMM_VERS = 2.0
CREATION_DATE  = 
ORIGINATOR     = 

OBJECT_NAME    = CZ-4B R/B
OBJECT_ID      = 2003-049C
CENTER_NAME    = EARTH
REF_FRAME      = TEME
TIME_SYSTEM    = UTC
MEAN_ELEMENT_THEORY = SGP/SGP4

EPOCH          = 2026-03-26T23:42:45.195840
MEAN_MOTION    = 14.55035299
ECCENTRICITY   = .0048171
INCLINATION    = 98.6893
RA_OF_ASC_NODE = 81.5736
ARG_OF_PERICENTER = 177.5517
MEAN_ANOMALY   = 182.5924

EPHEMERIS_TYPE = 0
CLASSIFICATION_TYPE = U
NORAD_CAT_ID   = 28059
ELEMENT_SET_NO = 999
REV_AT_EPOCH   = 18911
BSTAR          = .94471E-4
MEAN_MOTION_DOT = .362E-5
MEAN_MOTION_DDOT = 0

CCSDS_OMM_VERS = 2.0
CREATION_DATE  = 
ORIGINATOR     = 

OBJECT_NAME    = CZ-2C R/B
OBJECT_ID      = 2004-012C
CENTER_NAME    = EARTH
REF_FRAME      = TEME
TIME_SYSTEM    = UTC
MEAN_ELEMENT_THEORY = SGP/SGP4

EPOCH          = 2026-03-27T04:28:21.504000
MEAN_MOTION    = 15.66620770
ECCENTRICITY   = .001324
INCLINATION    = 97.7188
RA_OF_ASC_NODE = 153.1612
ARG_OF_PERICENTER = 238.9845
MEAN_ANOMALY   = 121.0115

EPHEMERIS_TYPE = 0
CLASSIFICATION_TYPE = U
NORAD_CAT_ID   = 28222
ELEMENT_SET_NO = 999
REV_AT_EPOCH   = 20701
BSTAR          = .51491E-3
MEAN_MOTION_DOT = .5423E-3
MEAN_MOTION_DDOT = 0

CCSDS_OMM_VERS = 2.0
CREATION_DATE  = 
ORIGINATOR     = 

OBJECT_NAME    = SL-16 R/B
OBJECT_ID      = 2004-021B
CENTER_NAME    = EARTH
REF_FRAME      = TEME
TIME_SYSTEM    = UTC
MEAN_ELEMENT_THEORY = SGP/SGP4

EPOCH          = 2026-03-26T10:16:24.145536
MEAN_MOTION    = 14.14593929
ECCENTRICITY   = .00048398
INCLINATION    = 71.0005
RA_OF_ASC_NODE = 197.3658
ARG_OF_PERICENTER = 349.4453
MEAN_ANOMALY   = 10.6567

EPHEMERIS_TYPE = 0
CLASSIFICATION_TYPE = U
NORAD_CAT_ID   = 28353
ELEMENT_SET_NO = 999
REV_AT_EPOCH   = 12520
BSTAR          = .77697456E-4
MEAN_MOTION_DOT = .102E-5
MEAN_MOTION_DDOT = 0

CCSDS_OMM_VERS = 2.0
CREATION_DATE  = 
ORIGINATOR     = 

OBJECT_NAME    = CZ-4B R/B
OBJECT_ID      = 2004-035C
CENTER_NAME    = EARTH
REF_FRAME      = TEME
TIME_SYSTEM    = UTC
MEAN_ELEMENT_THEORY = SGP/SGP4

EPOCH          = 2026-03-27T01:16:38.117280
MEAN_MOTION    = 15.29359100
ECCENTRICITY   = .0029966
INCLINATION    = 97.3476
RA_OF_ASC_NODE = 120.0889
ARG_OF_PERICENTER = 266.6078
MEAN_ANOMALY   = 93.1734

EPHEMERIS_TYPE = 0
CLASSIFICATION_TYPE = U
NORAD_CAT_ID   = 28415
ELEMENT_SET_NO = 999
REV_AT_EPOCH   = 18256
BSTAR          = .30304E-3
MEAN_MOTION_DOT = .8669E-4
MEAN_MOTION_DDOT = 0

CCSDS_OMM_VERS = 2.0
CREATION_DATE  = 
ORIGINATOR     = 

OBJECT_NAME    = CZ-2C R/B
OBJECT_ID      = 2004-046B
CENTER_NAME    = EARTH
REF_FRAME      = TEME
TIME_SYSTEM    = UTC
MEAN_ELEMENT_THEORY = SGP/SGP4

EPOCH          = 2026-03-27T03:43:46.967808
MEAN_MOTION    = 14.26998110
ECCENTRICITY   = .0140592
INCLINATION    = 98.1976
RA_OF_ASC_NODE = 0.0512
ARG_OF_PERICENTER = 103.1130
MEAN_ANOMALY   = 258.5785

EPHEMERIS_TYPE = 0
CLASSIFICATION_TYPE = U
NORAD_CAT_ID   = 28480
ELEMENT_SET_NO = 999
REV_AT_EPOCH   = 11099
BSTAR          = .62145E-4
MEAN_MOTION_DOT = .128E-5
MEAN_MOTION_DDOT = 0

CCSDS_OMM_VERS = 2.0
CREATION_DATE  = 
ORIGINATOR     = 

OBJECT_NAME    = ARIANE 5 R/B
OBJECT_ID      = 2004-049H
CENTER_NAME    = EARTH
REF_FRAME      = TEME
TIME_SYSTEM    = UTC
MEAN_ELEMENT_THEORY = SGP/SGP4

EPOCH          = 2026-03-27T01:56:27.534336
MEAN_MOTION    = 14.85296251
ECCENTRICITY   = .0082953
INCLINATION    = 98.2654
RA_OF_ASC_NODE = 255.1922
ARG_OF_PERICENTER = 295.0835
MEAN_ANOMALY   = 64.1786

EPHEMERIS_TYPE = 0
CLASSIFICATION_TYPE = U
NORAD_CAT_ID   = 28499
ELEMENT_SET_NO = 999
REV_AT_EPOCH   = 14837
BSTAR          = .95006E-4
MEAN_MOTION_DOT = .801E-5
MEAN_MOTION_DDOT = 0

CCSDS_OMM_VERS = 2.0
CREATION_DATE  = 
ORIGINATOR     = 

OBJECT_NAME    = CZ-2D R/B
OBJECT_ID      = 2005-024B
CENTER_NAME    = EARTH
REF_FRAME      = TEME
TIME_SYSTEM    = UTC
MEAN_ELEMENT_THEORY = SGP/SGP4

EPOCH          = 2026-03-27T00:26:14.100000
MEAN_MOTION    = 15.61707844
ECCENTRICITY   = .0002751
INCLINATION    = 97.3584
RA_OF_ASC_NODE = 101.8194
ARG_OF_PERICENTER = 348.3789
MEAN_ANOMALY   = 11.7405

EPHEMERIS_TYPE = 0
CLASSIFICATION_TYPE = U
NORAD_CAT_ID   = 28738
ELEMENT_SET_NO = 999
REV_AT_EPOCH   = 14248
BSTAR          = .5753E-3
MEAN_MOTION_DOT = .49716E-3
MEAN_MOTION_DDOT = 0

CCSDS_OMM_VERS = 2.0
CREATION_DATE  = 
ORIGINATOR     = 

OBJECT_NAME    = ALOS (DAICHI)
OBJECT_ID      = 2006-002A
CENTER_NAME    = EARTH
REF_FRAME      = TEME
TIME_SYSTEM    = UTC
MEAN_ELEMENT_THEORY = SGP/SGP4

EPOCH          = 2026-03-26T20:41:35.371680
MEAN_MOTION    = 14.69860279
ECCENTRICITY   = .00008053
INCLINATION    = 98.1245
RA_OF_ASC_NODE = 41.7351
ARG_OF_PERICENTER = 103.5214
MEAN_ANOMALY   = 256.6081

EPHEMERIS_TYPE = 0
CLASSIFICATION_TYPE = U
NORAD_CAT_ID   = 28931
ELEMENT_SET_NO = 999
REV_AT_EPOCH   = 7600
BSTAR          = .22084387E-3
MEAN_MOTION_DOT = .1271E-4
MEAN_MOTION_DDOT = 0

